EAGLET-I                
1 43790U 18099AJ  26068.68676861  .00006017  00000+0  35262-3 0  9994
2 43790  97.4369 120.9821 0010486 336.8524  23.2233 15.12108144397298
STARLINK-3274           
1 50186U 21125AG  26068.81957075 -.00000529  00000+0 -15154-4 0  9992
2 50186  53.2159 258.5414 0001207  87.4837 272.6293 15.08836755236474
