[{"OBJECT_NAME":"EAGLET-I","OBJECT_ID":"2018-099AJ","EPOCH":"2026-03-09T16:28:56.807904","MEAN_MOTION":15.12108145,"ECCENTRICITY":0.00104863,"INCLINATION":97.4369,"RA_OF_ASC_NODE":120.9821,"ARG_OF_PERICENTER":336.8524,"MEAN_ANOMALY":23.2233,"EPHEMERIS_TYPE":0,"CLASSIFICATION_TYPE":"U","NORAD_CAT_ID":43790,"ELEMENT_SET_NO":999,"REV_AT_EPOCH":39729,"BSTAR":0.0003526184,"MEAN_MOTION_DOT":6.017e-5,"MEAN_MOTION_DDOT":0},{"OBJECT_NAME":"STARLINK-3274","OBJECT_ID":"2021-125AG","EPOCH":"2026-03-09T19:40:10.913664","MEAN_MOTION":15.08836755,"ECCENTRICITY":0.0001207,"INCLINATION":53.2159,"RA_OF_ASC_NODE":258.5414,"ARG_OF_PERICENTER":87.4837,"MEAN_ANOMALY":272.6293,"EPHEMERIS_TYPE":0,"CLASSIFICATION_TYPE":"U","NORAD_CAT_ID":50186,"ELEMENT_SET_NO":999,"REV_AT_EPOCH":23647,"BSTAR":-1.5153508e-5,"MEAN_MOTION_DOT":-5.29e-6,"MEAN_MOTION_DDOT":0}]
